POPACS 1                
1 39268U 13055D   22214.38894461  .00011964  00000+0  29809-3 0  9997
2 39268  80.9962 190.0575 0568203  61.7781 303.9576 14.51536984459967
POPACS 2                
1 39269U 13055E   22214.51414172  .00004652  00000+0  12789-3 0  9995
2 39269  81.0093 248.0862 0644352 212.0520 143.9928 14.33436847456787
POPACS 3                
1 39270U 13055F   22214.45673191  .00002007  00000+0  60959-4 0  9993
2 39270  81.0142 281.8430 0686603 307.7262  46.3549 14.22334536435175
ZACUBE-1 (TSHEPISOSAT)  
1 39417U 13066B   22214.46892261  .00000578  00000+0  76654-4 0  9990
2 39417  97.6393 183.8998 0056015 253.4009 106.1049 14.82480962469946
WNISAT-1                
1 39423U 13066H   22214.48603525  .00000295  00000+0  67578-4 0  9993
2 39423  97.7477  92.5604 0174737 354.4863   5.4429 14.53531711461143
TRITON-1                
1 39427U 13066M   22214.38023784  .00000524  00000+0  89003-4 0  9991
2 39427  97.8132 148.1821 0113013 117.5101 243.7645 14.69050610465522
DELFI-N3XT              
1 39428U 13066N   22214.36010383  .00000769  00000+0  12492-3 0  9999
2 39428  97.8141 146.7501 0118151 130.5246 230.6324 14.69314951465277
GOMX-1                  
1 39430U 13066Q   22214.43311232  .00000409  00000+0  82190-4 0  9991
2 39430  97.8060 119.0036 0147635 259.9555  98.4943 14.60286622463004
CUBEBUG-2 (LO-74)       
1 39440U 13066AA  22214.45293299  .00000788  00000+0  11316-3 0  9997
2 39440  97.7285 170.0845 0078196 343.4688  16.3974 14.77139557467075
NEE-02 KRYSAOR          
1 39441U 13066AB  22214.42736921  .00000571  00000+0  86314-4 0  9990
2 39441  97.7395 167.2197 0080466 357.3782   2.6995 14.75836199466814
FUNCUBE-1 (AO-73)       
1 39444U 13066AE  22214.51911333  .00000689  00000+0  87796-4 0  9990
2 39444  97.6272 186.3598 0054972 240.7991 118.7718 14.83588121468358
UWE-3                   
1 39446U 13066AG  22214.46269561  .00000649  00000+0  90088-4 0  9999
2 39446  97.6883 176.5482 0067126 300.0841  59.3726 14.79704692467266
AEROCUBE 5A             
1 39465U 13072D   22214.58934083  .00027051  00000+0  15151-2 0  9990
2 39465 120.4828 124.9972 0193676 329.7754  29.2259 14.98774086156530
AEROCUBE 5B             
1 39466U 13072E   22214.51007848  .00069790  00000+0  22251-2 0  9999
2 39466 120.4561 216.9385 0129676 351.9350   7.9647 15.24156137157731
BRITE-CA1 (TORONTO)     
1 40020U 14033L   22214.38747028  .00000249  00000+0  50100-4 0  9991
2 40020  97.7837  11.0213 0088088 116.6162 244.4102 14.67092151434398
DUCHIFAT-1              
1 40021U 14033M   22214.51735956  .00000999  00000+0  10158-3 0  9994
2 40021  98.0144 165.5677 0010890 246.3552 113.6524 14.93111619441576
NANOSATC-BR1            
1 40024U 14033Q   22214.55855420  .00000876  00000+0  92376-4 0  9997
2 40024  97.9868 158.7349 0010279 253.7936 106.2151 14.91921133440851
QB50P1                  
1 40025U 14033R   22214.57610995  .00000986  00000+0  10642-3 0  9993
2 40025  97.9609 152.3421 0010612 265.3954  94.6051 14.90666196440635
QB50P2                  
1 40032U 14033Y   22214.55238227  .00000836  00000+0  92459-4 0  9994
2 40032  97.9377 147.5246 0010018 262.9517  97.0561 14.90080415440484
PERSEUS-M2              
1 40037U 14033AD  22214.39643564  .00000295  00000+0  39005-4 0  9992
2 40037  97.8947 136.3598 0012845 289.6690  70.3140 14.87168749439955
PERSEUS-M1              
1 40039U 14033AF  22214.53789987  .00000293  00000+0  39066-4 0  9995
2 40039  97.8846 134.1785 0012670 288.1467  71.8368 14.86776204439858
POLYITAN-1              
1 40042U 14033AJ  22214.38786418  .00001083  00000+0  11613-3 0  9993
2 40042  97.9714 153.4058 0012723 257.2766 102.7029 14.90719381440490
TIGRISAT                
1 40043U 14033AK  22214.49181698  .00000313  00000+0  52368-4 0  9993
2 40043  97.6567  41.2683 0059398   8.8215 351.4024 14.75086497436413
AEROCUBE 6A             
1 40045U 14033AM  22214.48581721  .00000348  00000+0  55850-4 0  9992
2 40045  97.6653  50.1773 0056789 356.6565   3.4258 14.76478502436576
AEROCUBE 6B             
1 40046U 14033AN  22214.51958222  .00000649  00000+0  97139-4 0  9991
2 40046  97.6568  48.6493 0055615 354.6182   5.4424 14.76864812436584
UKUBE-1                 
1 40074U 14037F   22214.49274155  .00000757  00000+0  94526-4 0  9996
2 40074  98.3757  97.5606 0004932 128.6553 231.5090 14.85534478436908
BRITE-PL2 (HEWELIUSZ)   
1 40119U 14049B   22214.49476040  .00000382  00000+0  50813-4 0  9991
2 40119  97.8849 309.6518 0018667  91.8647 268.4706 14.85209016430845
FIREBIRD 4              
1 40378U 15003C   22214.48439642  .00007104  00000+0  20839-3 0  9998
2 40378  99.0941  89.9186 0096960 228.1634 131.1295 15.31019455415469
GRIFEX                  
1 40379U 15003D   22214.55571131  .00004434  00000+0  15745-3 0  9990
2 40379  99.1066  75.4088 0112751 272.5156  86.3172 15.23929960414645
CP10 (EXOCUBE)          
1 40380U 15003E   22214.56490950  .00002763  00000+0  10860-3 0  9998
2 40380  99.1167  68.0176 0121237 297.5257  61.3695 15.20372757414166
TIANWANG 1A (TW-1A)     
1 40928U 15051D   22214.51166126  .00025709  00000+0  28180-3 0  9998
2 40928  97.0354 236.8628 0006782 187.8636 337.6451 15.63209440385425
EXACTVIEW 9             
1 40936U 15052G   22211.99369220  .00001008  00000+0  50671-4 0  9994
2 40936   6.0026 222.7928 0009904  51.5360 308.5656 14.77222666369668
AEROCUBE 5C             
1 40965U 15058B   22214.53418259  .00000890  00000+0  11622-3 0  9992
2 40965  64.7783 311.5118 0187086 185.4334 174.4746 14.75749923155767
AEROCUBE 7              
1 40966U 15058C   22214.58283041  .00001122  00000+0  14026-3 0  9997
2 40966  64.7782 308.4380 0185034 185.0715 174.8523 14.76335562155772
ATHENOXAT 1             
1 41168U 15077C   22214.38751102  .00006819  00000+0  25758-3 0  9991
2 41168  14.9825 109.6876 0008910 169.2981 338.0297 15.21943517367312
GALASSIA                
1 41170U 15077E   22214.04409786  .00005104  00000+0  18976-3 0  9995
2 41170  14.9880 103.4349 0010442 190.9075 169.1021 15.21084915367171
VELOX-II                
1 41171U 15077F   22214.24290735  .00003832  00000+0  15658-3 0  9990
2 41171  14.9899 177.6408 0007549  26.3917 333.6788 15.16304182366578
HORYU-4                 
1 41340U 16012D   22213.98359599  .00001297  00000+0  86239-4 0  9999
2 41340  31.0050  68.3007 0013440 293.7623  66.1604 15.03540207354586
E-ST@R-II               
1 41459U 16025D   22214.42583344  .00006930  00000+0  29406-3 0  9992
2 41459  98.1897  23.0197 0143962 113.2283 248.4146 15.14455940344451
AAUSAT 4                
1 41460U 16025E   22214.48584571  .00010257  00000+0  37937-3 0  9998
2 41460  98.1820  29.7217 0122797  87.7188 273.8097 15.21021075344933
BEESAT-4                
1 41619U 16040W   22214.56521016  .00006964  00000+0  22625-3 0  9993
2 41619  97.2129 263.9883 0007605 318.7512  41.3155 15.32202176327782
RAVAN                   
1 41849U 16067B   22214.38093403  .00001192  00000+0  98365-4 0  9994
2 41849  98.0061 352.7113 0014307 180.5595 179.5614 15.00959977312889
CELTEE 1                
1 41850U 16067C   22214.31982654  .00001523  00000+0  13218-3 0  9995
2 41850  98.0038 347.5122 0009013 170.4269 189.7126 14.98612177312628
OPTICUBE 04             
1 41851U 16067D   22214.32183139  .00001220  00000+0  10889-3 0  9993
2 41851  98.0028 346.5095 0008745 175.2309 184.8997 14.97886553312571
AEROCUBE 8D             
1 41852U 16067E   22214.31229882  .00001417  00000+0  12354-3 0  9996
2 41852  98.0005 346.5404 0009760 176.3848 183.7446 14.98525590312567
AEROCUBE 8C             
1 41853U 16067F   22214.36102246  .00000797  00000+0  71824-4 0  9994
2 41853  97.9991 346.4102 0009797 184.8101 175.3028 14.98492729312560
PROMETHEUS 2-1          
1 41854U 16067G   22214.35969716  .00001256  00000+0  10672-3 0  9991
2 41854  97.9981 347.5704 0012287 192.8656 167.2255 14.99739885312629
PROMETHEUS 2-3          
1 41855U 16067H   22214.35147223  .00000907  00000+0  78442-4 0  9995
2 41855  98.0005 347.6501 0010333 200.5516 159.5292 14.99772731312629
INS-1B                  
1 41954U 17008G   22214.42237842  .00006192  00000+0  19950-3 0  9996
2 41954  97.2539 273.3800 0009003  77.1240 283.1007 15.32504864303786
BGUSAT                  
1 41999U 17008BD  22214.15387417  .00015329  00000+0  34616-3 0  9997
2 41999  97.2775 284.4649 0006196  74.2680 285.9251 15.43269714303681
DIDO-2                  
1 42000U 17008BE  22214.43682109  .00003444  00000+0  12450-3 0  9995
2 42000  97.2529 272.5771 0009132  95.2627 264.9655 15.29072101303099
PEASSS                  
1 42015U 17008BV  22214.44418560  .00005353  00000+0  17292-3 0  9990
2 42015  97.2597 276.6547 0006936  92.2729 267.9308 15.32498992303817
AL-FARABI 1             
1 42016U 17008BW  22214.43860242  .00007713  00000+0  22408-3 0  9995
2 42016  97.2663 279.9016 0006154  89.2597 270.9352 15.35733992304101
NAYIF-1 (EO-88)         
1 42017U 17008BX  22214.44932404  .00007790  00000+0  22519-3 0  9995
2 42017  97.2655 279.9290 0006413  87.6388 272.5590 15.35886006304135
UCLSAT                  
1 42765U 17036A   22214.55574037  .00005849  00000+0  19949-3 0  9998
2 42765  97.1937 255.7964 0010249 150.5095 209.6727 15.30670278284906
LITUANICASAT-2          
1 42768U 17036D   22214.37828592  .00011968  00000+0  32610-3 0  9998
2 42768  97.2017 258.7976 0011836 136.2778 223.9407 15.37553559284304
AALTO-1                 
1 42775U 17036L   22214.53453788  .00003330  00000+0  13143-3 0  9999
2 42775  97.1944 250.5649 0013253 155.8208 204.3656 15.26134031283808
URSA MAIOR              
1 42776U 17036M   22214.56337061  .00003779  00000+0  14607-3 0  9991
2 42776  97.1955 251.3681 0012939 154.4299 205.7583 15.26749560283848
COMPASS 2               
1 42777U 17036N   22214.37364944  .00008408  00000+0  25837-3 0  9992
2 42777  97.2009 257.9326 0010819 140.2410 219.9628 15.33886843284180
